{
  "norad_id": 64370,
  "name": "STARLINK-11732 [DTC]",
  "history": [
    {
      "epoch": "2026-03-28T17:07:28.293024",
      "apogee_km": 357.2391410580685,
      "perigee_km": 355.2087312358208,
      "latitude_deg": 27.00777863673892,
      "longitude_deg": -34.50189663982019,
      "semi_major_axis_km": 6734.360936146944,
      "eccentricity": 0.00015075,
      "inclination_deg": 42.9994,
      "raan_deg": 329.9304,
      "arg_perigee_deg": 257.8237,
      "mean_anomaly_deg": 102.2462,
      "mean_motion_rev_day": 15.70934864
    }
  ]
}